ENTRYSAT                
1 44429U 98067QP  19258.18925913  .00006510  00000-0  11135-3 0  9992
2 44429  51.6405 274.1210 0003856  27.4462 332.6731 15.52604603 11526
VCC C                   
1 44430U 98067QQ  19257.61160074  .00007148  00000-0  12145-3 0  9990
2 44430  51.6406 277.0133 0004117  33.1678 326.9570 15.52617965 10261
VCC B                   
1 44431U 98067QR  19257.29241406  .00004747  00000-0  83717-4 0  9990
2 44431  51.6406 278.6305 0004052  30.6909 329.4317 15.52444774 11328
